1 45413U 20019BF  22365.15544764  .00004276  00000-0  30572-3 0  9992
2 45413  53.0561 324.4055 0002011  43.8657 316.2491 15.06407065154436
1 45413U 20019BF  22365.15544764  .00004276  00000-0  30572-3 0  9992
2 45413  53.0561 324.4055 0002011  43.8657 316.2491 15.06407065154436
1 45413U 20019BF  22365.61988822  .00001196  00000-0  99211-4 0  9994
2 45413  53.0546 322.3227 0001684  36.9946 323.1159 15.06395154154507
1 45413U 20019BF  22365.88528114  .00002003  00000-0  15340-3 0  9995
2 45413  53.0561 321.1294 0001711  42.7235 317.3886 15.06387625154542
1 45413U 20019BF  23001.28336159 -.00000331  00000-0 -33389-5 0  9992
2 45413  53.0557 319.3412 0001759  48.2151 311.8988 15.06397960154600
1 45413U 20019BF  23001.88049147 -.00003568  00000-0 -22077-3 0  9991
2 45413  53.0544 316.6613 0002011  48.5539 311.5622 15.06398484154697
1 45413U 20019BF  23002.27857318 -.00002164  00000-0 -12640-3 0  9998
2 45413  53.0556 314.8750 0001899  40.7008 319.4123 15.06394099154758
1 45413U 20019BF  23002.27857318 -.00002164  00000-0 -12640-3 0  9998
2 45413  53.0556 314.8750 0001899  40.7008 319.4123 15.06394099154758
1 45413U 20019BF  23002.87569249  .00001037  00000-0  88509-4 0  9991
2 45413  53.0562 312.1943 0001845  44.6789 315.4349 15.06392275154840
1 45413U 20019BF  23003.53915913  .00001700  00000-0  13299-3 0  9998
2 45413  53.0563 309.2160 0001889  46.1273 313.9872 15.06399605154941
1 45413U 20019BF  23003.53915913  .00001700  00000-0  13299-3 0  9998
2 45413  53.0563 309.2160 0001889  46.1273 313.9872 15.06399605154941
1 45413U 20019BF  23004.53435567  .00003100  00000-0  22689-3 0  9990
2 45413  53.0567 304.7489 0001896  47.7402 312.3747 15.06409454155093
1 45413U 20019BF  23005.19781255  .00004290  00000-0  30657-3 0  9996
2 45413  53.0553 301.7701 0001917  45.2028 314.9117 15.06420565155199
1 45413U 20019BF  23005.52954479  .00001977  00000-0  15155-3 0  9998
2 45413  53.0555 300.2812 0001931  51.0629 309.0532 15.06416885155248
1 45413U 20019BF  23006.19300863 -.00001403  00000-0 -75271-4 0  9996
2 45413  53.0562 297.3014 0001856  51.0402 309.0752 15.06411658155349
1 45413U 20019BF  23006.79015300 -.00006555  00000-0 -42180-3 0  9996
2 45413  53.0556 294.6228 0002097  50.3898 309.7276 15.06379244155430
1 45413U 20019BF  23006.79015300 -.00006555  00000-0 -42180-3 0  9996
2 45413  53.0556 294.6228 0002097  50.3898 309.7276 15.06379244155430
1 45413U 20019BF  23007.18823314 -.00003548  00000-0 -21950-3 0  9993
2 45413  53.0550 292.8344 0001905  50.5345 309.5812 15.06385975155497
1 45413U 20019BF  23007.18823314 -.00003548  00000-0 -21950-3 0  9993
2 45413  53.0550 292.8344 0001905  50.5345 309.5812 15.06385975155497
1 45413U 20019BF  23007.78536041  .00001553  00000-0  12321-3 0  9991
2 45413  53.0551 290.1541 0001876  57.6325 302.4845 15.06388207155580
1 45413U 20019BF  23008.11709871  .00005636  00000-0  39704-3 0  9992
2 45413  53.0551 288.6655 0001897  56.5975 303.5195 15.06391346155634
1 45413U 20019BF  23008.11709871  .00005636  00000-0  39704-3 0  9992
2 45413  53.0551 288.6655 0001897  56.5975 303.5195 15.06391346155634
1 45413U 20019BF  23008.78056302  .00008043  00000-0  55811-3 0  9991
2 45413  53.0551 285.6866 0001903  60.2550 299.8628 15.06408321155735
1 45413U 20019BF  23008.78056302  .00008043  00000-0  55811-3 0  9991
2 45413  53.0551 285.6866 0001903  60.2550 299.8628 15.06408321155735
1 45413U 20019BF  23009.17864720  .00002611  00000-0  19415-3 0  9991
2 45413  53.0550 283.9002 0001841  55.1949 304.9213 15.06397337155791
1 45413U 20019BF  23009.44403073  .00003594  00000-0  25999-3 0  9996
2 45413  53.0549 282.7091 0001838  55.7705 304.3458 15.06405288155831
1 45413U 20019BF  23009.70941744  .00002007  00000-0  15362-3 0  9998
2 45413  53.0548 281.5180 0001770  55.2745 304.8410 15.06403118155877
1 45413U 20019BF  23010.43923639 -.00000201  00000-0  54134-5 0  9990
2 45413  53.0556 278.2406 0001717  54.2624 305.8524 15.06400622155982
1 45413U 20019BF  23010.43923639 -.00000201  00000-0  54134-5 0  9990
2 45413  53.0556 278.2406 0001717  54.2624 305.8524 15.06400622155982
1 45413U 20019BF  23011.10269602  .00002649  00000-0  19661-3 0  9999
2 45413  53.0551 275.2621 0001448  66.0718 294.0423 15.06408590156080
1 45413U 20019BF  23011.43444066  .00000332  00000-0  41205-4 0  9991
2 45413  53.0554 273.7736 0001718  60.4314 299.6846 15.06397960156137
1 45413U 20019BF  23011.43444066  .00000332  00000-0  41205-4 0  9991
2 45413  53.0554 273.7736 0001718  60.4314 299.6846 15.06397960156137
1 45413U 20019BF  23012.89408206  .00000427  00000-0  47554-4 0  9996
2 45413  53.0544 267.2209 0001448  74.1897 285.9251 15.06389170156353
1 45413U 20019BF  23012.96042758 -.00000893  00000-0 -41049-4 0  9992
2 45413  53.0548 266.9223 0001600  68.5032 291.6127 15.06397865156364
1 45413U 20019BF  23013.42485562 -.00000753  00000-0 -31663-4 0  9994
2 45413  53.0548 264.8374 0001614  69.0458 291.0704 15.06397901156435
1 45413U 20019BF  23013.95562696  .00002257  00000-0  17037-3 0  9993
2 45413  53.0556 262.4549 0001649  78.3289 281.7885 15.06398648156519
1 45413U 20019BF  23014.08832030  .00002835  00000-0  20914-3 0  9990
2 45413  53.0540 261.8598 0001615  78.5033 281.6137 15.06405045156532
1 45413U 20019BF  23014.95083041  .00001589  00000-0  12553-3 0  9991
2 45413  53.0539 257.9848 0001913 100.1142 260.0063 15.06402094156662
1 45413U 20019BF  23015.08352643  .00000651  00000-0  62640-4 0  9995
2 45413  53.0554 257.3899 0001878  95.1431 264.9772 15.06398265156689
1 45413U 20019BF  23015.81334167  .00001210  00000-0  10013-3 0  9995
2 45413  53.0548 254.1132 0001653 107.9031 252.2138 15.06399142156799
1 45413U 20019BF  23015.94603240  .00001339  00000-0  10872-3 0  9995
2 45413  53.0542 253.5202 0001363  94.7651 265.3494 15.06405280156817
1 45413U 20019BF  23016.34411514  .00000780  00000-0  71282-4 0  9993
2 45413  53.0534 251.7319 0001546  96.6031 263.5133 15.06400452156875
1 45413U 20019BF  23016.94124574 -.00002960  00000-0 -17996-3 0  9991
2 45413  53.0544 249.0534 0001509 101.3589 258.7570 15.06389180156961
1 45413U 20019BF  23016.94124574 -.00002960  00000-0 -17996-3 0  9991
2 45413  53.0544 249.0534 0001509 101.3589 258.7570 15.06389180156961
1 45413U 20019BF  23017.60471813  .00001955  00000-0  15011-3 0  9993
2 45413  53.0544 246.0737 0001184  95.2535 264.8589 15.06391708157063
1 45413U 20019BF  23017.67106283  .00001219  00000-0  10070-3 0  9999
2 45413  53.0545 245.7760 0001208  97.4277 262.6849 15.06396721157076
1 45413U 20019BF  23018.00279594  .00003910  00000-0  28123-3 0  9991
2 45413  53.0541 244.2867 0001177  93.9134 266.1990 15.06401652157124
1 45413U 20019BF  23018.33453308  .00005894  00000-0  41423-3 0  9995
2 45413  53.0538 242.7975 0001198  94.8658 265.2468 15.06400629157175
1 45413U 20019BF  23018.86530492  .00006657  00000-0  46526-3 0  9990
2 45413  53.0534 240.4148 0001181  95.0194 265.0930 15.06408757157259
1 45413U 20019BF  23019.32973423  .00002016  00000-0  15420-3 0  9991
2 45413  53.0540 238.3303 0001290  84.3758 275.7378 15.06401116157327
1 45413U 20019BF  23019.32973423  .00002016  00000-0  15420-3 0  9991
2 45413  53.0540 238.3303 0001290  84.3758 275.7378 15.06401116157327
1 45413U 20019BF  23019.72781807  .00000223  00000-0  33846-4 0  9999
2 45413  53.0541 236.5402 0001201 101.5193 258.5930 15.06394213157383
1 45413U 20019BF  23020.32493828  .00002132  00000-0  16198-3 0  9991
2 45413  53.0538 233.8610 0001264  90.4635 269.6499 15.06403016157471
1 45413U 20019BF  23020.85570960  .00004740  00000-0  33682-3 0  9996
2 45413  53.0535 231.4795 0001190  84.2031 275.9094 15.06410569157556
1 45413U 20019BF  23021.71821934  .00004584  00000-0  32635-3 0  9995
2 45413  53.0532 227.6075 0001068  84.1811 275.9300 15.06408042157687
1 45413U 20019BF  23022.58072860  .00001616  00000-0  12732-3 0  9996
2 45413  53.0545 223.7368 0001135  94.0217 266.0902 15.06399247157818
1 45413U 20019BF  23023.84131828  .00001595  00000-0  12594-3 0  9998
2 45413  53.0546 218.0766 0001133  95.7204 264.3914 15.06400967158008
1 45413U 20019BF  23024.83652447  .00001121  00000-0  94110-4 0  9993
2 45413  53.0553 213.6088 0001041  94.3403 265.7705 15.06399029158153
1 45413U 20019BF  23025.30095468  .00000635  00000-0  61536-4 0  9995
2 45413  53.0552 211.5238 0001061  89.2109 270.9001 15.06396451158225
1 45413U 20019BF  23025.76539640 -.00001643  00000-0 -91463-4 0  9994
2 45413  53.0552 209.4387 0001027  88.7906 271.3201 15.06383383158291
1 45413U 20019BF  23025.76539640 -.00001643  00000-0 -91463-4 0  9994
2 45413  53.0552 209.4387 0001027  88.7906 271.3201 15.06383383158291
1 45413U 20019BF  23025.89809000 -.00001506  00000-0 -82249-4 0  9998
2 45413  53.0552 208.8430 0001046  88.1514 271.9594 15.06384578158314
1 45413U 20019BF  23026.76059686  .00000255  00000-0  35991-4 0  9992
2 45413  53.0553 204.9711 0001026  85.9724 274.1382 15.06390970158447
1 45413U 20019BF  23027.49040893  .00001320  00000-0  10752-3 0  9994
2 45413  53.0556 201.6956 0001029  77.0627 283.0477 15.06396391158551
1 45413U 20019BF  23027.62309609 -.00002282  00000-0 -13429-3 0  9996
2 45413  53.0557 201.0999 0001143  72.5817 287.5296 15.06416124158578
1 45413U 20019BF  23027.68944580  .00000796  00000-0  72285-4 0  9997
2 45413  53.0555 200.8014 0001041  79.3277 280.7829 15.06404025158588
1 45413U 20019BF  23027.68944580  .00000796  00000-0  72285-4 0  9997
2 45413  53.0555 200.8014 0001041  79.3277 280.7829 15.06404025158588
1 45413U 20019BF  23028.48560414  .00002204  00000-0  16675-3 0  9992
2 45413  53.0555 197.2263 0000946  88.4596 271.6501 15.06405648158703
1 45413U 20019BF  23028.88367712  .00002759  00000-0  20398-3 0  9994
2 45413  53.0555 195.4405 0000961  75.1437 284.9658 15.06414968158766
1 45413U 20019BF  23029.14907747  .00000525  00000-0  54120-4 0  9992
2 45413  53.0556 194.2489 0001000  78.1466 281.9635 15.06398993158802
1 45413U 20019BF  23029.87888701  .00000000  00000-0  18909-4 0  9993
2 45413  53.0561 190.9712 0001024  80.1213 279.9892 15.06405669158912
1 45413U 20019BF  23030.40966491 -.00001540  00000-0 -84513-4 0  9993
2 45413  53.0562 188.5905 0001189  92.9764 267.1361 15.06400088158992
1 45413U 20019BF  23030.40966491 -.00001540  00000-0 -84513-4 0  9993
2 45413  53.0562 188.5905 0001189  92.9764 267.1361 15.06400088158992
1 45413U 20019BF  23031.53755885  .00001248  00000-0  10264-3 0  9995
2 45413  53.0560 183.5278 0001032  88.7200 271.3907 15.06397413159163
1 45413U 20019BF  23031.53755885  .00001248  00000-0  10264-3 0  9995
2 45413  53.0560 183.5278 0001032  88.7200 271.3907 15.06397413159163
1 45413U 20019BF  23031.80294130  .00000821  00000-0  74000-4 0  9991
2 45413  53.0556 182.3364 0001245 113.6707 246.4413 15.06405320159204
1 45413U 20019BF  23031.80294130  .00000821  00000-0  74000-4 0  9991
2 45413  53.0556 182.3364 0001245 113.6707 246.4413 15.06405320159204
